IRIDIUM 921 [-]         
1 24873U 97034E   24113.08548552  .00047330  00000+0  13682-2 0  9993
2 24873  86.3800 315.8249 0005933 101.3565 258.8353 15.35426898466566
IRIDIUM 26 [-]          
1 24903U 97043A   24113.45772175  .00001523  00000+0  51463-3 0  9992
2 24903  86.3904 287.1531 0002284  86.9569 273.1889 14.36298155396332
IRIDIUM 22 [-]          
1 24907U 97043E   24113.47030800  .00001459  00000+0  50386-3 0  9991
2 24907  86.3908 290.3432 0002101  91.1058 269.0379 14.35189636396414
DUMMY MASS 1 [-]        
1 24925U 97048A   24113.10694821  .00001233  00000+0  13752-3 0  9991
2 24925  86.3340 329.9179 0006431 178.2866 181.8382 14.86149058442579
DUMMY MASS 2 [-]        
1 24926U 97048B   24113.06711770  .00001239  00000+0  13903-3 0  9994
2 24926  86.3342 331.4690 0006709 192.2677 167.8385 14.85907936442351
IRIDIUM 29 [-]          
1 24944U 97051A   24113.07241085  .00001234  00000+0  42145-3 0  9991
2 24944  86.3935 320.4479 0002072  94.7928 265.3505 14.35643991392834
IRIDIUM 33 [-]          
1 24946U 97051C   24113.11660637  .00000857  00000+0  29818-3 0  9998
2 24946  86.3849 319.6844 0008656  26.8663 333.2979 14.34319099392379
IRIDIUM 28 [-]          
1 24948U 97051E   24113.11346366  .00001244  00000+0  41680-3 0  9992
2 24948  86.3936 318.1868 0002379  79.2184 280.9281 14.36593251393375
